GLOBALSTAR M024         
1 25883U 99043A   25100.69418253 -.00000021  00000+0  15507-2 0  9990
2 25883  51.9990 172.9110 0000993 347.9072 183.8154 11.10162366107369
GLOBALSTAR M027         
1 25884U 99043B   25100.70217271 -.00000097  00000+0 -12620-2 0  9997
2 25884  52.0199 248.9622 0021042 240.6879 119.1811 11.04371392133788
GLOBALSTAR M054         
1 25885U 99043C   25101.55677348 -.00000068  00000+0  85518-4 0  9992
2 25885  52.0174  25.5383 0006495  59.4764 111.2226 11.39211663111780
GLOBALSTAR M053         
1 25886U 99043D   25100.79801903 -.00000029  00000+0  11461-2 0  9995
2 25886  52.0013 330.7155 0003034 340.4050  98.7446 11.27664388111841
GLOBALSTAR M058         
1 25907U 99049A   25101.20874931 -.00000068  00000+0  21776-3 0  9997
2 25907  51.9938 288.0265 0002690 129.2865 230.8208 11.93196163144755
GLOBALSTAR M050         
1 25908U 99049B   25101.48085976 -.00000079  00000+0  10138-3 0  9993
2 25908  51.9991 299.9597 0008289 256.5652 111.8512 12.07453097144868
GLOBALSTAR M033         
1 25909U 99049C   25100.69285226 -.00000017  00000+0  71509-3 0  9997
2 25909  51.9897 178.6145 0013960 124.7473 235.4691 12.20289341527506
GLOBALSTAR M055         
1 25910U 99049D   25100.69614029 -.00000058  00000+0  31440-3 0  9991
2 25910  52.0010 192.6396 0006583 354.4657   5.6121 12.29425214159988
